NORAD_CAT_ID,OBJECT_NAME,OBJECT_TYPE,EPOCH,MEAN_MOTION,ECCENTRICITY,INCLINATION,RA_OF_ASC_NODE,ARG_OF_PERICENTER,MEAN_ANOMALY,BSTAR,MEAN_MOTION_DOT,MEAN_MOTION_DDOT,TLE_LINE0,TLE_LINE1,TLE_LINE2,SEMIMAJOR_AXIS,PERIOD,APOGEE,PERIGEE,DECAYED
55295.0,STARLINK-5293,PAYLOAD,2023-02-15 06:14:53,15.69927005,0.0003354,70.0003,353.7817,269.6731,90.408,-3.2253e-05,-4.089e-05,0.0,0 STARLINK-5293,1 55295U 23010AC  23046.26034551 -.00004089  00000-0 -32253-4 0  9995,2 55295  70.0003 353.7817 0003354 269.6731  90.4080 15.69927005  4707,6737.243,91.724,361.368,356.848,0.0
55295.0,STARLINK-5293,PAYLOAD,2023-02-15 13:53:39,15.6994788,0.0003407,70.0004,352.886,266.4008,93.6798,0.0002057,0.00024618,0.0,0 STARLINK-5293,1 55295U 23010AC  23046.57892526  .00024618  00000-0  20570-3 0  9999,2 55295  70.0004 352.8860 0003407 266.4008  93.6798 15.69947880  4756,6737.183,91.723,361.343,356.753,0.0
55295.0,STARLINK-5293,PAYLOAD,2023-02-15 21:32:24,15.69969888,0.0003354,69.9999,351.9908,261.2519,98.8297,0.00031305,0.00037669,0.0,0 STARLINK-5293,1 55295U 23010AC  23046.89750079  .00037669  00000-0  31305-3 0  9998,2 55295  69.9999 351.9908 0003354 261.2519  98.8297 15.69969888  5125,6737.12,91.722,361.245,356.726,0.0
55295.0,STARLINK-5293,PAYLOAD,2023-02-15 23:04:09,15.69991018,0.0003366,69.9997,351.8109,268.9271,91.1539,0.00052101,0.00063082,0.0,0 STARLINK-5293,1 55295U 23010AC  23046.96121555  .00063082  00000-0  52101-3 0  9992,2 55295  69.9997 351.8109 0003366 268.9271  91.1539 15.69991018  4817,6737.06,91.72,361.192,356.657,0.0
55295.0,STARLINK-5293,PAYLOAD,2023-02-16 08:14:40,15.6992272,0.0003492,70.0003,350.7364,273.2635,86.8161,0.0005855,0.00070782,0.0,0 STARLINK-5293,1 55295U 23010AC  23047.34352298  .00070782  00000-0  58550-3 0  9994,2 55295  70.0003 350.7364 0003492 273.2635  86.8161 15.69922720  4874,6737.255,91.724,361.473,356.767,0.0
55295.0,STARLINK-5293,PAYLOAD,2023-02-16 12:49:56,15.69913266,0.0003705,70.0004,350.199,275.3938,84.6835,0.00072708,0.00088101,0.0,0 STARLINK-5293,1 55295U 23010AC  23047.53467646  .00088101  00000-0  72708-3 0  9994,2 55295  70.0004 350.1990 0003705 275.3938  84.6835 15.69913266  5229,6737.282,91.725,361.643,356.651,0.0
55295.0,STARLINK-5293,PAYLOAD,2023-02-16 14:21:41,15.69919624,0.0003663,70.0005,350.0198,276.5407,83.5372,0.00074108,0.00089843,0.0,0 STARLINK-5293,1 55295U 23010AC  23047.59839379  .00089843  00000-0  74108-3 0  9996,2 55295  70.0005 350.0198 0003663 276.5407  83.5372 15.69919624  4919,6737.264,91.724,361.597,356.661,0.0
55295.0,STARLINK-5293,PAYLOAD,2023-02-16 22:00:27,15.6991741,0.000365,70.0005,349.1241,276.216,83.862,0.00058081,0.00070195,0.0,0 STARLINK-5293,1 55295U 23010AC  23047.91698337  .00070195  00000-0  58081-3 0  9991,2 55295  70.0005 349.1241 0003650 276.2160  83.8620 15.69917410  5287,6737.27,91.725,361.594,356.676,0.0
55295.0,STARLINK-5293,PAYLOAD,2023-02-16 23:32:12,15.69926044,0.000359,70.0006,348.9451,272.3995,87.6789,0.00068554,0.00083047,0.0,0 STARLINK-5293,1 55295U 23010AC  23047.98069967  .00083047  00000-0  68554-3 0  9995,2 55295  70.0006 348.9451 0003590 272.3995  87.6789 15.69926044  4970,6737.246,91.724,361.529,356.692,0.0
55295.0,STARLINK-5293,PAYLOAD,2023-02-17 05:39:12,15.69942648,0.0003712,70.0008,348.2282,273.2696,86.8075,0.00041214,0.00049679,0.0,0 STARLINK-5293,1 55295U 23010AC  23048.23556544  .00049679  00000-0  41214-3 0  9993,2 55295  70.0008 348.2282 0003712 273.2696  86.8075 15.69942648  5014,6737.198,91.723,361.564,356.562,0.0
55295.0,STARLINK-5293,PAYLOAD,2023-02-17 13:17:58,15.69902106,0.0003683,70.001,347.3322,269.0097,91.0677,0.00024245,0.00029016,0.0,0 STARLINK-5293,1 55295U 23010AC  23048.55415263  .00029016  00000-0  24245-3 0  9998,2 55295  70.0010 347.3322 0003683 269.0097  91.0677 15.69902106  5063,6737.314,91.725,361.66,356.698,0.0
55295.0,STARLINK-5293,PAYLOAD,2023-02-17 20:56:44,15.69928812,0.0003668,70.0008,346.4367,267.5336,92.544,0.00051599,0.00062308,0.0,0 STARLINK-5293,1 55295U 23010AC  23048.87273740  .00062308  00000-0  51599-3 0  9998,2 55295  70.0008 346.4367 0003668 267.5336  92.5440 15.69928812  5438,6737.238,91.724,361.574,356.631,0.0
55295.0,STARLINK-5293,PAYLOAD,2023-02-18 06:07:14,15.69954853,0.0003605,70.0013,345.3615,269.5949,90.4834,0.00028328,0.00034032,0.0,0 STARLINK-5293,1 55295U 23010AC  23049.25503160  .00034032  00000-0  28328-3 0  9990,2 55295  70.0013 345.3615 0003605 269.5949  90.4834 15.69954853  5170,6737.163,91.722,361.457,356.599,0.0
55295.0,STARLINK-5293,PAYLOAD,2023-02-18 10:42:30,15.69940589,0.0003603,70.0015,344.824,274.5188,85.5596,0.00038618,0.00046514,0.0,0 STARLINK-5293,1 55295U 23010AC  23049.44618068  .00046514  00000-0  38618-3 0  9996,2 55295  70.0015 344.8240 0003603 274.5188  85.5596 15.69940589  5204,6737.204,91.723,361.496,356.642,0.0
55295.0,STARLINK-5293,PAYLOAD,2023-02-18 13:46:00,15.69937553,0.0003704,70.0015,344.4658,272.5572,87.5199,0.00035688,0.00042946,0.0,0 STARLINK-5293,1 55295U 23010AC  23049.57361206  .00042946  00000-0  35688-3 0  9998,2 55295  70.0015 344.4658 0003704 272.5572  87.5199 15.69937553  5545,6737.213,91.723,361.573,356.582,0.0
55295.0,STARLINK-5293,PAYLOAD,2023-02-18 21:24:45,15.69932507,0.0003654,70.0015,343.5702,268.6081,91.4696,0.00045965,0.00055445,0.0,0 STARLINK-5293,1 55295U 23010AC  23049.89219696  .00055445  00000-0  45965-3 0  9995,2 55295  70.0015 343.5702 0003654 268.6081  91.4696 15.69932507  5270,6737.227,91.724,361.554,356.63,0.0
55295.0,STARLINK-5293,PAYLOAD,2023-02-19 05:03:31,15.6993998,0.000363,70.0016,342.6744,271.6406,88.4373,0.00048301,0.00058311,0.0,0 STARLINK-5293,1 55295U 23010AC  23050.21078034  .00058311  00000-0  48301-3 0  9994,2 55295  70.0016 342.6744 0003630 271.6406  88.4373 15.69939980  5322,6737.206,91.723,361.516,356.625,0.0
55295.0,STARLINK-5293,PAYLOAD,2023-02-19 12:42:17,15.6992259,0.0003587,70.0016,341.7789,268.2635,91.815,0.00044135,0.00053192,0.0,0 STARLINK-5293,1 55295U 23010AC  23050.52936519  .00053192  00000-0  44135-3 0  9992,2 55295  70.0016 341.7789 0003587 268.2635  91.8150 15.69922590  5698,6737.255,91.724,361.537,356.704,0.0
55295.0,STARLINK-5293,PAYLOAD,2023-02-19 14:14:02,15.69926142,0.0003617,70.0016,341.5999,267.736,92.3422,0.00048304,0.00058281,0.0,0 STARLINK-5293,1 55295U 23010AC  23050.59308181  .00058281  00000-0  48304-3 0  9993,2 55295  70.0016 341.5999 0003617 267.7360  92.3422 15.69926142  5383,6737.245,91.724,361.547,356.673,0.0
55295.0,STARLINK-5293,PAYLOAD,2023-02-19 23:24:32,15.69949397,0.0003586,70.0015,340.5252,265.9315,94.1471,0.00055125,0.00066671,0.0,0 STARLINK-5293,1 55295U 23010AC  23050.97538142  .00066671  00000-0  55125-3 0  9998,2 55295  70.0015 340.5252 0003586 265.9315  94.1471 15.69949397  5446,6737.179,91.723,361.46,356.628,0.0
55295.0,STARLINK-5293,PAYLOAD,2023-02-20 08:35:03,15.69955135,0.0003487,70.0018,339.45,267.022,93.0576,0.00050416,0.00060929,0.0,0 STARLINK-5293,1 55295U 23010AC  23051.35767896  .00060929  00000-0  50416-3 0  9999,2 55295  70.0018 339.4500 0003487 267.0220  93.0576 15.69955135  5508,6737.162,91.722,361.377,356.678,0.0
55295.0,STARLINK-5293,PAYLOAD,2023-02-20 13:10:19,15.69926956,0.0003486,70.0017,338.913,271.4164,88.6633,0.00047614,0.0005744,0.0,0 STARLINK-5293,1 55295U 23010AC  23051.54883236  .00057440  00000-0  47614-3 0  9997,2 55295  70.0017 338.9130 0003486 271.4164  88.6633 15.69926956  5531,6737.243,91.724,361.457,356.759,0.0
55295.0,STARLINK-5293,PAYLOAD,2023-02-20 22:20:50,15.69923385,0.0003476,70.0015,337.8383,270.108,89.9717,0.00054772,0.00066166,0.0,0 STARLINK-5293,1 55295U 23010AC  23051.93113693  .00066166  00000-0  54772-3 0  9991,2 55295  70.0015 337.8383 0003476 270.1080  89.9717 15.69923385  5595,6737.253,91.724,361.46,356.776,0.0
55295.0,STARLINK-5293,PAYLOAD,2023-02-21 12:06:36,15.69923382,0.000351,70.0015,336.226,261.5879,98.4919,0.00036349,0.00043722,0.0,0 STARLINK-5293,1 55295U 23010AC  23052.50458505  .00043722  00000-0  36349-3 0  9992,2 55295  70.0015 336.2260 0003510 261.5879  98.4919 15.69923382  5687,6737.253,91.724,361.483,356.753,0.0
55295.0,STARLINK-5293,PAYLOAD,2023-02-21 21:17:06,15.6995371,0.0003546,70.0011,335.1514,259.2451,100.8346,0.00057509,0.000696,0.0,0 STARLINK-5293,1 55295U 23010AC  23052.88688221  .00069600  00000-0  57509-3 0  9997,2 55295  70.0011 335.1514 0003546 259.2451 100.8346 15.69953710  6065,6737.166,91.722,361.42,356.642,0.0
55295.0,STARLINK-5293,PAYLOAD,2023-02-22 06:27:37,15.69926087,0.0003179,70.0012,334.0768,261.7147,98.3689,6.2491e-05,7.308e-05,0.0,0 STARLINK-5293,1 55295U 23010AC  23053.26918360  .00007308  00000-0  62491-4 0  9994,2 55295  70.0012 334.0768 0003179 261.7147  98.3689 15.69926087  5806,6737.245,91.724,361.252,356.969,0.0
55295.0,STARLINK-5293,PAYLOAD,2023-02-22 21:45:08,15.69954004,0.0003352,70.0009,332.285,257.6877,102.3944,0.00042099,0.00050778,0.0,0 STARLINK-5293,1 55295U 23010AC  23053.90634856  .00050778  00000-0  42099-3 0  9990,2 55295  70.0009 332.2850 0003352 257.6877 102.3944 15.69954004  6228,6737.166,91.722,361.289,356.772,0.0
55295.0,STARLINK-5293,PAYLOAD,2023-02-23 06:55:39,15.69936385,0.0002583,70.0008,331.2103,264.1939,95.8962,0.00052381,0.00063272,0.0,0 STARLINK-5293,1 55295U 23010AC  23054.28865213  .00063272  00000-0  52381-3 0  9993,2 55295  70.0008 331.2103 0002583 264.1939  95.8962 15.69936385  5962,6737.216,91.723,360.821,357.341,0.0
55295.0,STARLINK-5293,PAYLOAD,2023-02-23 20:41:25,15.6995071,0.0003679,70.0004,329.5978,259.8221,100.256,0.00057916,0.00070091,0.0,0 STARLINK-5293,1 55295U 23010AC  23054.86210142  .00070091  00000-0  57916-3 0  9998,2 55295  70.0004 329.5978 0003679 259.8221 100.2560 15.69950710  6379,6737.175,91.723,361.519,356.561,0.0
55295.0,STARLINK-5293,PAYLOAD,2023-02-23 22:13:10,15.69936477,0.0003896,70.0003,329.4191,277.1548,82.9205,0.00044932,0.00054197,0.0,0 STARLINK-5293,1 55295U 23010AC  23054.92582055  .00054197  00000-0  44932-3 0  9993,2 55295  70.0003 329.4191 0003896 277.1548  82.9205 15.69936477  6062,6737.216,91.723,361.706,356.456,0.0
